[{"OBJECT_NAME":"KUIPER-00142","OBJECT_ID":"2025-217E","EPOCH":"2026-03-09T06:52:04.501344","MEAN_MOTION":14.79949047,"ECCENTRICITY":5.833e-5,"INCLINATION":51.9001,"RA_OF_ASC_NODE":37.3746,"ARG_OF_PERICENTER":83.1443,"MEAN_ANOMALY":276.9586,"EPHEMERIS_TYPE":0,"CLASSIFICATION_TYPE":"U","NORAD_CAT_ID":65766,"ELEMENT_SET_NO":999,"REV_AT_EPOCH":2492,"BSTAR":0.00076660108,"MEAN_MOTION_DOT":5.63e-5,"MEAN_MOTION_DDOT":0},{"OBJECT_NAME":"CZ-6A DEB","OBJECT_ID":"2024-140PM","EPOCH":"2026-03-09T13:51:31.286016","MEAN_MOTION":14.89023636,"ECCENTRICITY":0.005735,"INCLINATION":89.0306,"RA_OF_ASC_NODE":283.4654,"ARG_OF_PERICENTER":193.2665,"MEAN_ANOMALY":166.7059,"EPHEMERIS_TYPE":0,"CLASSIFICATION_TYPE":"U","NORAD_CAT_ID":61119,"ELEMENT_SET_NO":999,"REV_AT_EPOCH":8334,"BSTAR":0.0034209,"MEAN_MOTION_DOT":0.00033325,"MEAN_MOTION_DDOT":0}]
